KUIPER-00149            
1 65968U 25228X   26065.98455907 -.00008744  00000+0 -11182-2 0  9998
2 65968  51.9036 350.0660 0001674  66.4788 293.6350 14.79977280 23149
KUIPER-00154            
1 65969U 25228Y   26066.49373738  .00005380  00000+0  73390-3 0  9998
2 65969  51.9011 345.3181 0000748 104.7210 255.3835 14.79948755 23255
KUIPER-00157            
1 65970U 25228Z   26066.49109198 -.00001770  00000+0 -20348-3 0  9993
2 65970  51.9037 347.9379 0000723  64.8932 295.2106 14.79891020 23214
KUIPER-00144            
1 67133U 25301A   26066.31485071  .00054389  00000+0  14204-2 0  9991
2 67133  51.8683  76.5596 0007703  24.8599 335.2758 15.38235194 13373
KUIPER-00164            
1 67134U 25301B   26066.58334491 -.01686917  00000+0 -10266+0 0  9992
2 67134  51.8803  77.0732 0005413  65.5393 123.3010 15.13089133  5063
KUIPER-00175            
1 67135U 25301C   26066.30320403  .00035728  00000+0  11865-2 0  9995
2 67135  51.8788  76.5139 0002164  40.0735 320.0408 15.30874565 13447
KUIPER-00179            
1 67136U 25301D   26066.58334491  .00009175  00000+0  58144-3 0  9997
2 67136  51.8851  76.5763 0002361  66.4450  76.8713 15.09592723  5015
KUIPER-00181            
1 67137U 25301E   26066.41599360  .00003992  00000+0  59924-3 0  9996
2 67137  51.9019  87.0977 0001923  86.9330 273.1851 14.76415287 13391
KUIPER-00183            
1 67138U 25301F   26066.58334491  .00011402  00000+0  41508-3 0  9991
2 67138  51.8666  76.1724 0015360  46.3324 224.8793 15.28580680  5859
KUIPER-00184            
1 67139U 25301G   26066.58334491 -.00544088  00000+0 -17919-1 0  9992
2 67139  51.8640  75.8067 0011713  47.3524  57.6396 15.33128172  5793
KUIPER-00186            
1 67140U 25301H   26066.41698718  .00004934  00000+0  67472-3 0  9991
2 67140  51.9015  88.1604 0000787 114.7275 245.3770 14.79996503 13226
KUIPER-00187            
1 67141U 25301J   26066.27920260  .00005479  00000+0  74700-3 0  9993
2 67141  51.9019  91.2812 0000812 107.0826 253.0225 14.79940849 13169
KUIPER-00188            
1 67142U 25301K   26066.40297436  .00043920  00000+0  11620-2 0  9995
2 67142  51.8693  76.3902 0010029  38.7271 321.4433 15.37908942 13384
KUIPER-00191            
1 67143U 25301L   26066.58334491 -.00014957  00000+0 -18213-2 0  9993
2 67143  51.8994  82.4933 0002872  69.7808 227.6848 14.82492013  5247
KUIPER-00196            
1 67144U 25301M   26066.29291088  .00026549  00000+0  69119-3 0  9996
2 67144  51.8706  76.4316 0003883  15.5486 344.5620 15.38695229 13377
KUIPER-00204            
1 67145U 25301N   26066.23651845  .00026149  00000+0  10122-2 0  9997
2 67145  51.8852  81.9104 0002934 345.7791  14.3108 15.26008306 13407
KUIPER-00210            
1 67146U 25301P   26066.58334491 -.00008162  00000+0 -96477-3 0  9996
2 67146  51.8982  82.4871 0007308  60.9068  42.0687 14.83116788  5836
