[{"OBJECT_NAME":"KUIPER-00149","OBJECT_ID":"2025-228X","EPOCH":"2026-03-06T23:37:45.903648","MEAN_MOTION":14.7997728,"ECCENTRICITY":0.00016743,"INCLINATION":51.9036,"RA_OF_ASC_NODE":350.066,"ARG_OF_PERICENTER":66.4788,"MEAN_ANOMALY":293.635,"EPHEMERIS_TYPE":0,"CLASSIFICATION_TYPE":"U","NORAD_CAT_ID":65968,"ELEMENT_SET_NO":999,"REV_AT_EPOCH":2314,"BSTAR":-0.001118216,"MEAN_MOTION_DOT":-8.744e-5,"MEAN_MOTION_DDOT":0},{"OBJECT_NAME":"KUIPER-00154","OBJECT_ID":"2025-228Y","EPOCH":"2026-03-07T11:50:58.909632","MEAN_MOTION":14.79948755,"ECCENTRICITY":7.484e-5,"INCLINATION":51.9011,"RA_OF_ASC_NODE":345.3181,"ARG_OF_PERICENTER":104.721,"MEAN_ANOMALY":255.3835,"EPHEMERIS_TYPE":0,"CLASSIFICATION_TYPE":"U","NORAD_CAT_ID":65969,"ELEMENT_SET_NO":999,"REV_AT_EPOCH":2325,"BSTAR":0.00073389529,"MEAN_MOTION_DOT":5.38e-5,"MEAN_MOTION_DDOT":0},{"OBJECT_NAME":"KUIPER-00157","OBJECT_ID":"2025-228Z","EPOCH":"2026-03-07T11:47:10.347072","MEAN_MOTION":14.7989102,"ECCENTRICITY":7.237e-5,"INCLINATION":51.9037,"RA_OF_ASC_NODE":347.9379,"ARG_OF_PERICENTER":64.8932,"MEAN_ANOMALY":295.2106,"EPHEMERIS_TYPE":0,"CLASSIFICATION_TYPE":"U","NORAD_CAT_ID":65970,"ELEMENT_SET_NO":999,"REV_AT_EPOCH":2321,"BSTAR":-0.0002034783,"MEAN_MOTION_DOT":-1.77e-5,"MEAN_MOTION_DDOT":0},{"OBJECT_NAME":"KUIPER-00144","OBJECT_ID":"2025-301A","EPOCH":"2026-03-07T07:33:23.101344","MEAN_MOTION":15.38235194,"ECCENTRICITY":0.0007703,"INCLINATION":51.8683,"RA_OF_ASC_NODE":76.5596,"ARG_OF_PERICENTER":24.8599,"MEAN_ANOMALY":335.2758,"EPHEMERIS_TYPE":0,"CLASSIFICATION_TYPE":"U","NORAD_CAT_ID":67133,"ELEMENT_SET_NO":999,"REV_AT_EPOCH":1337,"BSTAR":0.0014204,"MEAN_MOTION_DOT":0.00054389,"MEAN_MOTION_DDOT":0},{"OBJECT_NAME":"KUIPER-00164","OBJECT_ID":"2025-301B","EPOCH":"2026-03-07T14:00:01.000224","MEAN_MOTION":15.13089133,"ECCENTRICITY":0.00054136,"INCLINATION":51.8803,"RA_OF_ASC_NODE":77.0732,"ARG_OF_PERICENTER":65.5393,"MEAN_ANOMALY":123.301,"EPHEMERIS_TYPE":0,"CLASSIFICATION_TYPE":"U","NORAD_CAT_ID":67134,"ELEMENT_SET_NO":999,"REV_AT_EPOCH":506,"BSTAR":-0.10266149,"MEAN_MOTION_DOT":-0.01686917,"MEAN_MOTION_DDOT":0},{"OBJECT_NAME":"KUIPER-00175","OBJECT_ID":"2025-301C","EPOCH":"2026-03-07T07:16:36.828192","MEAN_MOTION":15.30874565,"ECCENTRICITY":0.0002164,"INCLINATION":51.8788,"RA_OF_ASC_NODE":76.5139,"ARG_OF_PERICENTER":40.0735,"MEAN_ANOMALY":320.0408,"EPHEMERIS_TYPE":0,"CLASSIFICATION_TYPE":"U","NORAD_CAT_ID":67135,"ELEMENT_SET_NO":999,"REV_AT_EPOCH":1344,"BSTAR":0.0011865,"MEAN_MOTION_DOT":0.00035728,"MEAN_MOTION_DDOT":0},{"OBJECT_NAME":"KUIPER-00179","OBJECT_ID":"2025-301D","EPOCH":"2026-03-07T14:00:01.000224","MEAN_MOTION":15.09592723,"ECCENTRICITY":0.00023618,"INCLINATION":51.8851,"RA_OF_ASC_NODE":76.5763,"ARG_OF_PERICENTER":66.445,"MEAN_ANOMALY":76.8713,"EPHEMERIS_TYPE":0,"CLASSIFICATION_TYPE":"U","NORAD_CAT_ID":67136,"ELEMENT_SET_NO":999,"REV_AT_EPOCH":501,"BSTAR":0.00058144428,"MEAN_MOTION_DOT":9.175e-5,"MEAN_MOTION_DDOT":0},{"OBJECT_NAME":"KUIPER-00181","OBJECT_ID":"2025-301E","EPOCH":"2026-03-07T09:59:01.847040","MEAN_MOTION":14.76415287,"ECCENTRICITY":0.00019236,"INCLINATION":51.9019,"RA_OF_ASC_NODE":87.0977,"ARG_OF_PERICENTER":86.933,"MEAN_ANOMALY":273.1851,"EPHEMERIS_TYPE":0,"CLASSIFICATION_TYPE":"U","NORAD_CAT_ID":67137,"ELEMENT_SET_NO":999,"REV_AT_EPOCH":1339,"BSTAR":0.00059923693,"MEAN_MOTION_DOT":3.992e-5,"MEAN_MOTION_DDOT":0},{"OBJECT_NAME":"KUIPER-00183","OBJECT_ID":"2025-301F","EPOCH":"2026-03-07T14:00:01.000224","MEAN_MOTION":15.2858068,"ECCENTRICITY":0.001536,"INCLINATION":51.8666,"RA_OF_ASC_NODE":76.1724,"ARG_OF_PERICENTER":46.3324,"MEAN_ANOMALY":224.8793,"EPHEMERIS_TYPE":0,"CLASSIFICATION_TYPE":"U","NORAD_CAT_ID":67138,"ELEMENT_SET_NO":999,"REV_AT_EPOCH":585,"BSTAR":0.00041508265,"MEAN_MOTION_DOT":0.00011402,"MEAN_MOTION_DDOT":0},{"OBJECT_NAME":"KUIPER-00184","OBJECT_ID":"2025-301G","EPOCH":"2026-03-07T14:00:01.000224","MEAN_MOTION":15.33128172,"ECCENTRICITY":0.00117133,"INCLINATION":51.864,"RA_OF_ASC_NODE":75.8067,"ARG_OF_PERICENTER":47.3524,"MEAN_ANOMALY":57.6396,"EPHEMERIS_TYPE":0,"CLASSIFICATION_TYPE":"U","NORAD_CAT_ID":67139,"ELEMENT_SET_NO":999,"REV_AT_EPOCH":579,"BSTAR":-0.017918679,"MEAN_MOTION_DOT":-0.00544088,"MEAN_MOTION_DDOT":0},{"OBJECT_NAME":"KUIPER-00186","OBJECT_ID":"2025-301H","EPOCH":"2026-03-07T10:00:27.692352","MEAN_MOTION":14.79996503,"ECCENTRICITY":7.879e-5,"INCLINATION":51.9015,"RA_OF_ASC_NODE":88.1604,"ARG_OF_PERICENTER":114.7275,"MEAN_ANOMALY":245.377,"EPHEMERIS_TYPE":0,"CLASSIFICATION_TYPE":"U","NORAD_CAT_ID":67140,"ELEMENT_SET_NO":999,"REV_AT_EPOCH":1322,"BSTAR":0.00067472358,"MEAN_MOTION_DOT":4.934e-5,"MEAN_MOTION_DDOT":0},{"OBJECT_NAME":"KUIPER-00187","OBJECT_ID":"2025-301J","EPOCH":"2026-03-07T06:42:03.104640","MEAN_MOTION":14.79940849,"ECCENTRICITY":8.12e-5,"INCLINATION":51.9019,"RA_OF_ASC_NODE":91.2812,"ARG_OF_PERICENTER":107.0826,"MEAN_ANOMALY":253.0225,"EPHEMERIS_TYPE":0,"CLASSIFICATION_TYPE":"U","NORAD_CAT_ID":67141,"ELEMENT_SET_NO":999,"REV_AT_EPOCH":1316,"BSTAR":0.000747,"MEAN_MOTION_DOT":5.479e-5,"MEAN_MOTION_DDOT":0},{"OBJECT_NAME":"KUIPER-00188","OBJECT_ID":"2025-301K","EPOCH":"2026-03-07T09:40:16.984704","MEAN_MOTION":15.37908942,"ECCENTRICITY":0.0010029,"INCLINATION":51.8693,"RA_OF_ASC_NODE":76.3902,"ARG_OF_PERICENTER":38.7271,"MEAN_ANOMALY":321.4433,"EPHEMERIS_TYPE":0,"CLASSIFICATION_TYPE":"U","NORAD_CAT_ID":67142,"ELEMENT_SET_NO":999,"REV_AT_EPOCH":1338,"BSTAR":0.0011620353,"MEAN_MOTION_DOT":0.0004392,"MEAN_MOTION_DDOT":0},{"OBJECT_NAME":"KUIPER-00191","OBJECT_ID":"2025-301L","EPOCH":"2026-03-07T14:00:01.000224","MEAN_MOTION":14.82492013,"ECCENTRICITY":0.00028723,"INCLINATION":51.8994,"RA_OF_ASC_NODE":82.4933,"ARG_OF_PERICENTER":69.7808,"MEAN_ANOMALY":227.6848,"EPHEMERIS_TYPE":0,"CLASSIFICATION_TYPE":"U","NORAD_CAT_ID":67143,"ELEMENT_SET_NO":999,"REV_AT_EPOCH":524,"BSTAR":-0.0018213495,"MEAN_MOTION_DOT":-0.00014957,"MEAN_MOTION_DDOT":0},{"OBJECT_NAME":"KUIPER-00196","OBJECT_ID":"2025-301M","EPOCH":"2026-03-07T07:01:47.500032","MEAN_MOTION":15.38695229,"ECCENTRICITY":0.0003883,"INCLINATION":51.8706,"RA_OF_ASC_NODE":76.4316,"ARG_OF_PERICENTER":15.5486,"MEAN_ANOMALY":344.562,"EPHEMERIS_TYPE":0,"CLASSIFICATION_TYPE":"U","NORAD_CAT_ID":67144,"ELEMENT_SET_NO":999,"REV_AT_EPOCH":1337,"BSTAR":0.00069119,"MEAN_MOTION_DOT":0.00026549,"MEAN_MOTION_DDOT":0},{"OBJECT_NAME":"KUIPER-00204","OBJECT_ID":"2025-301N","EPOCH":"2026-03-07T05:40:35.194080","MEAN_MOTION":15.26008306,"ECCENTRICITY":0.0002934,"INCLINATION":51.8852,"RA_OF_ASC_NODE":81.9104,"ARG_OF_PERICENTER":345.7791,"MEAN_ANOMALY":14.3108,"EPHEMERIS_TYPE":0,"CLASSIFICATION_TYPE":"U","NORAD_CAT_ID":67145,"ELEMENT_SET_NO":999,"REV_AT_EPOCH":1340,"BSTAR":0.0010122,"MEAN_MOTION_DOT":0.00026149,"MEAN_MOTION_DDOT":0},{"OBJECT_NAME":"KUIPER-00210","OBJECT_ID":"2025-301P","EPOCH":"2026-03-07T14:00:01.000224","MEAN_MOTION":14.83116788,"ECCENTRICITY":0.00073085,"INCLINATION":51.8982,"RA_OF_ASC_NODE":82.4871,"ARG_OF_PERICENTER":60.9068,"MEAN_ANOMALY":42.0687,"EPHEMERIS_TYPE":0,"CLASSIFICATION_TYPE":"U","NORAD_CAT_ID":67146,"ELEMENT_SET_NO":999,"REV_AT_EPOCH":583,"BSTAR":-0.00096476696,"MEAN_MOTION_DOT":-8.162e-5,"MEAN_MOTION_DDOT":0}]
